     2              NAVIGATION DATA                         RINEX VERSION / TYPE
CCRINEXN V1.6.0 UX  CDDIS               27-NOV-07 02:51     PGM / RUN BY / DATE 
IGS BROADCAST EPHEMERIS FILE                                COMMENT             
    0.1118E-07 -0.1490E-07 -0.5960E-07  0.1192E-06          ION ALPHA           
    0.9830E+05 -0.1147E+06 -0.1966E+06  0.7209E+06          ION BETA            
   -0.279396772385E-08-0.888178419700E-14   233472     1455 DELTA-UTC: A0,A1,T,W
    14                                                      LEAP SECONDS        
                                                            END OF HEADER       
23 07 11 26 10  0  0.0 0.312678515911E-03 0.341060513165E-11 0.000000000000E+00
    0.820000000000E+02-0.436562500000E+02 0.461876403790E-08-0.154168403173E+01
   -0.238046050072E-05 0.522793794517E-02-0.987201929092E-06 0.515359111977E+04
    0.122400000000E+06-0.614672899246E-07-0.108926419115E+01-0.651925802231E-07
    0.971039309216E+00 0.407812500000E+03 0.274379762404E+01-0.852714077126E-08
   -0.253581999149E-10 0.100000000000E+01 0.145500000000E+04 0.000000000000E+00
    0.200000000000E+01 0.000000000000E+00-0.200234353542E-07 0.820000000000E+02
    0.115218000000E+06 0.400000000000E+01 0.000000000000E+00 0.000000000000E+00
24 07 11 26 10  0  0.0 0.490332022309E-04 0.284217094304E-11 0.000000000000E+00
    0.620000000000E+02 0.592187500000E+02 0.439125434194E-08 0.739034289847E+00
    0.310316681862E-05 0.830643088557E-02 0.107418745756E-04 0.515366135597E+04
    0.122400000000E+06 0.115483999252E-06-0.313462965215E+01-0.122934579849E-06
    0.954835646749E+00 0.168843750000E+03-0.753461750329E+00-0.784604110482E-08
   -0.425017703693E-09 0.100000000000E+01 0.145500000000E+04 0.000000000000E+00
    0.280000000000E+01 0.000000000000E+00-0.139698386192E-08 0.620000000000E+02
    0.120990000000E+06 0.000000000000E+00 0.000000000000E+00 0.000000000000E+00
26 07 11 26 10  0  0.0 0.107157975435E-03 0.119371179608E-10 0.000000000000E+00
    0.550000000000E+02-0.568750000000E+02 0.395016454021E-08-0.225592897869E+01
   -0.305101275444E-05 0.184137986507E-01-0.167638063431E-06 0.515357519150E+04
    0.122400000000E+06 0.266358256340E-06-0.105079501938E+01-0.102445483208E-06
    0.993003359376E+00 0.395593750000E+03 0.893213313806E+00-0.791497254752E-08
    0.710743891050E-10 0.100000000000E+01 0.145500000000E+04 0.000000000000E+00
    0.240000000000E+01 0.000000000000E+00-0.651925802231E-08 0.550000000000E+02
    0.115206000000E+06 0.400000000000E+01 0.000000000000E+00 0.000000000000E+00
27 07 11 26 10  0  0.0 0.150247942656E-03 0.250111042988E-11 0.000000000000E+00
    0.480000000000E+02-0.170375000000E+03 0.416945938901E-08 0.124360541176E+01
   -0.906363129616E-05 0.208593333373E-01 0.831112265587E-05 0.515365255928E+04
    0.122400000000E+06-0.355765223503E-06-0.105213982585E+00-0.344589352608E-06
    0.967067422263E+00 0.234406250000E+03-0.177000996134E+01-0.808355099806E-08
   -0.732173355102E-10 0.000000000000E+00 0.145500000000E+04 0.000000000000E+00
    0.200000000000E+01 0.000000000000E+00-0.419095158577E-08 0.480000000000E+02
    0.115200000000E+06 0.400000000000E+01 0.000000000000E+00 0.000000000000E+00
28 07 11 26 10  0  0.0-0.109863467514E-04-0.682121026330E-12 0.000000000000E+00
    0.250000000000E+02-0.163437500000E+02 0.461519222839E-08 0.100179989310E+00
   -0.732019543648E-06 0.130499511724E-01 0.878795981407E-05 0.515370201111E+04
    0.122400000000E+06-0.391155481338E-07 0.102770002822E+01 0.152736902237E-06
    0.962358138285E+00 0.212812500000E+03-0.215956826472E+01-0.806140754150E-08
    0.535736621732E-09 0.100000000000E+01 0.145500000000E+04 0.000000000000E+00
    0.200000000000E+01 0.000000000000E+00-0.102445483208E-07 0.250000000000E+02
    0.115218000000E+06 0.400000000000E+01 0.000000000000E+00 0.000000000000E+00
30 07 11 26 10  0  0.0 0.538849271834E-04 0.136424205266E-11 0.000000000000E+00
    0.260000000000E+02-0.762500000000E+01 0.489698969356E-08 0.470384979297E+00
   -0.409781932831E-06 0.103633997496E-01 0.958703458309E-05 0.515369565773E+04
    0.122400000000E+06-0.199303030968E-06 0.963969545475E+00-0.353902578354E-07
    0.947173872245E+00 0.188562500000E+03 0.136964954841E+01-0.815498254490E-08
    0.567523639638E-09 0.100000000000E+01 0.145500000000E+04 0.000000000000E+00
    0.200000000000E+01 0.000000000000E+00-0.791624188423E-08 0.260000000000E+02
    0.115218000000E+06 0.400000000000E+01 0.000000000000E+00 0.000000000000E+00
31 07 11 26 10  0  0.0 0.915955752134E-06-0.147792889038E-11 0.000000000000E+00
    0.850000000000E+02-0.168718750000E+03 0.407052669663E-08 0.299924482307E+01
   -0.848807394505E-05 0.650544383097E-02 0.943988561630E-05 0.515362555122E+04
    0.122400000000E+06 0.122934579849E-06-0.484505550287E-01 0.447034835815E-07
    0.965556815980E+00 0.197031250000E+03-0.131990180051E+01-0.771532137410E-08
   -0.403588239642E-10 0.100000000000E+01 0.145500000000E+04 0.000000000000E+00
    0.280000000000E+01 0.000000000000E+00-0.130385160446E-07 0.850000000000E+02
    0.115218000000E+06 0.400000000000E+01 0.000000000000E+00 0.000000000000E+00
32 07 11 26 10  0  0.0 0.151532236487E-03 0.129602995003E-10 0.000000000000E+00
    0.170000000000E+02 0.167281250000E+03 0.418374569837E-08-0.130228588521E+01
    0.891648232937E-05 0.148422007915E-01 0.441446900368E-05 0.515352799416E+04
    0.122400000000E+06-0.219792127609E-06-0.205589353235E+01 0.245869159698E-06
    0.971726345286E+00 0.306968750000E+03-0.135768808066E+01-0.819212694926E-08
    0.305369862738E-09 0.100000000000E+01 0.145500000000E+04 0.000000000000E+00
    0.200000000000E+01 0.630000000000E+02-0.325962901115E-08 0.170000000000E+02
    0.115218000000E+06 0.400000000000E+01 0.000000000000E+00 0.000000000000E+00
 1 07 11 26 11 59 44.0 0.168884638697E-03 0.238742359215E-11 0.000000000000E+00
    0.280000000000E+02-0.581250000000E+02 0.417803117463E-08-0.899692039625E+00
   -0.284425914288E-05 0.709680712316E-02 0.245869159698E-06 0.515359038734E+04
    0.129584000000E+06-0.745058059692E-07-0.103777493876E+01 0.670552253723E-07
    0.990862745959E+00 0.391125000000E+03-0.180052665338E+01-0.825498671047E-08
   -0.102861427449E-09 0.100000000000E+01 0.145500000000E+04 0.000000000000E+00
    0.200000000000E+01 0.000000000000E+00-0.372529029846E-08 0.280000000000E+02
    0.122418000000E+06 0.400000000000E+01 0.000000000000E+00 0.000000000000E+00
10 07 11 26 11 59 44.0-0.155016314238E-03-0.121644916362E-10 0.000000000000E+00
    0.500000000000E+01 0.160718750000E+03 0.421588985944E-08 0.556434173282E+00
    0.847689807415E-05 0.771757226903E-02 0.543147325516E-05 0.515373871040E+04
    0.129584000000E+06-0.558793544769E-08-0.211402887425E+01 0.119209289551E-06
    0.966397164401E+00 0.275375000000E+03 0.498402898996E+00-0.812212430645E-08
    0.186436338590E-09 0.100000000000E+01 0.145500000000E+04 0.000000000000E+00
    0.200000000000E+01 0.000000000000E+00-0.232830643654E-08 0.500000000000E+01
    0.128028000000E+06 0.400000000000E+01 0.000000000000E+00 0.000000000000E+00
16 07 11 26 11 59 44.0 0.126532278955E-03 0.159161572810E-11 0.000000000000E+00
    0.120000000000E+02-0.971875000000E+01 0.447661504041E-08 0.185242616652E+01
   -0.311061739922E-06 0.410649285186E-02 0.940449535847E-05 0.515377047920E+04
    0.129584000000E+06 0.186264514923E-08 0.101875311237E+01 0.484287738800E-07
    0.964244299045E+00 0.196750000000E+03-0.562263843312E+00-0.774389399284E-08
    0.601810782120E-09 0.100000000000E+01 0.145500000000E+04 0.000000000000E+00
    0.200000000000E+01 0.000000000000E+00-0.977888703346E-08 0.120000000000E+02
    0.126558000000E+06 0.400000000000E+01 0.000000000000E+00 0.000000000000E+00
21 07 11 26 11 59 44.0 0.760797411203E-04-0.454747350886E-12 0.000000000000E+00
    0.280000000000E+02 0.542500000000E+02 0.464555064869E-08-0.297740826183E+01
    0.273622572422E-05 0.130843105726E-01 0.114571303129E-04 0.515376719284E+04
    0.129584000000E+06-0.143423676491E-06 0.312562841668E+01-0.912696123123E-07
    0.938162931783E+00 0.147250000000E+03-0.278549425934E+01-0.772960768347E-08
   -0.494306304127E-09 0.000000000000E+00 0.145500000000E+04 0.000000000000E+00
    0.200000000000E+01 0.000000000000E+00-0.121071934700E-07 0.280000000000E+02
    0.128820000000E+06 0.400000000000E+01 0.000000000000E+00 0.000000000000E+00
31 07 11 26 11 59 44.0 0.902451574802E-06-0.147792889038E-11 0.000000000000E+00
    0.130000000000E+02-0.140187500000E+03 0.423267630796E-08-0.223630058258E+01
   -0.718981027603E-05 0.650929147378E-02 0.903569161892E-05 0.515361781120E+04
    0.129584000000E+06 0.614672899246E-07-0.485060332710E-01 0.113621354103E-06
    0.965556741371E+00 0.206187500000E+03-0.131966541050E+01-0.771317842770E-08
   -0.500020827875E-11 0.100000000000E+01 0.145500000000E+04 0.000000000000E+00
    0.200000000000E+01 0.000000000000E+00-0.130385160446E-07 0.130000000000E+02
    0.122988000000E+06 0.400000000000E+01 0.000000000000E+00 0.000000000000E+00
 2 07 11 26 12  0  0.0 0.153935514391E-03 0.284217094304E-11 0.000000000000E+00
    0.670000000000E+02 0.449687500000E+02 0.469876715314E-08-0.108251607628E+00
    0.230595469475E-05 0.869837182108E-02 0.111740082502E-04 0.515365780640E+04
    0.129600000000E+06 0.316649675369E-07 0.308984614998E+01-0.227242708206E-06
    0.945260378323E+00 0.160781250000E+03 0.242122553637E+01-0.799247601435E-08
   -0.636097952089E-09 0.100000000000E+01 0.145500000000E+04 0.000000000000E+00
    0.200000000000E+01 0.000000000000E+00-0.172294676304E-07 0.670000000000E+02
    0.122418000000E+06 0.400000000000E+01 0.000000000000E+00 0.000000000000E+00
